{"type": "FeatureCollection", "features": [ {"type": "Feature", "properties": {"norad_id": 41175, "name": "GSAT0208 (GALILEO 11)", "group": "galileo", "lat": -22.83618886099327, "lon": -56.81529740874956, "alt_km": 23230.54711140626, "timestamp": "2025-12-07T18:50:16.978783+00:00", "meta": {"OBJECT_NAME": "GSAT0208 (GALILEO 11)", "OBJECT_ID": "2015-079B", "EPOCH": "2025-12-05T16:28:14.683584", "MEAN_MOTION": 1.70474159, "ECCENTRICITY": 0.00019173, "INCLINATION": 55.707, "RA_OF_ASC_NODE": 106.5718, "ARG_OF_PERICENTER": 7.3332, "MEAN_ANOMALY": 352.6208, "EPHEMERIS_TYPE": 0, "CLASSIFICATION_TYPE": "U", "NORAD_CAT_ID": 41175, "ELEMENT_SET_NO": 999, "REV_AT_EPOCH": 6189, "BSTAR": 0, "MEAN_MOTION_DOT": 8e-08, "MEAN_MOTION_DDOT": 0}, "tle": {"line1": "1 41175U 15079B   25339.68628106  .00000008  00000+0  00000+0 0  9995", "line2": "2 41175  55.7070 106.5718 0001917   7.3332 352.6208  1.70474159 61896"}}, "geometry": {"type": "Point", "coordinates": [-56.81529740874956, -22.83618886099327]}}, {"type": "Feature", "properties": {"norad_id": 41549, "name": "GSAT0211 (GALILEO 14)", "group": "galileo", "lat": 37.64320086397095, "lon": 14.502263363895796, "alt_km": 23223.3929688892, "timestamp": "2025-12-07T18:50:16.978808+00:00", "meta": {"OBJECT_NAME": "GSAT0211 (GALILEO 14)", "OBJECT_ID": "2016-030A", "EPOCH": "2025-12-05T19:26:55.320000", "MEAN_MOTION": 1.70472946, "ECCENTRICITY": 0.00039556, "INCLINATION": 55.1547, "RA_OF_ASC_NODE": 227.0144, "ARG_OF_PERICENTER": 12.8849, "MEAN_ANOMALY": 347.2228, "EPHEMERIS_TYPE": 0, "CLASSIFICATION_TYPE": "U", "NORAD_CAT_ID": 41549, "ELEMENT_SET_NO": 999, "REV_AT_EPOCH": 5937, "BSTAR": 0, "MEAN_MOTION_DOT": 3.5e-07, "MEAN_MOTION_DDOT": 0}, "tle": {"line1": "1 41549U 16030A   25339.81036250  .00000035  00000+0  00000+0 0  9996", "line2": "2 41549  55.1547 227.0144 0003955  12.8849 347.2228  1.70472946 59378"}}, "geometry": {"type": "Point", "coordinates": [14.502263363895796, 37.64320086397095]}}, {"type": "Feature", "properties": {"norad_id": 41550, "name": "GSAT0210 (GALILEO 13)", "group": "galileo", "lat": -21.201254217466822, "lon": -148.69546173975564, "alt_km": 23225.090132234902, "timestamp": "2025-12-07T18:50:16.978822+00:00", "meta": {"OBJECT_NAME": "GSAT0210 (GALILEO 13)", "OBJECT_ID": "2016-030B", "EPOCH": "2025-12-04T07:23:32.472672", "MEAN_MOTION": 1.70473512, "ECCENTRICITY": 0.0001419, "INCLINATION": 55.1546, "RA_OF_ASC_NODE": 227.0538, "ARG_OF_PERICENTER": 244.2228, "MEAN_ANOMALY": 115.8568, "EPHEMERIS_TYPE": 0, "CLASSIFICATION_TYPE": "U", "NORAD_CAT_ID": 41550, "ELEMENT_SET_NO": 999, "REV_AT_EPOCH": 5934, "BSTAR": 0, "MEAN_MOTION_DOT": 4e-07, "MEAN_MOTION_DDOT": 0}, "tle": {"line1": "1 41550U 16030B   25338.30801473  .00000040  00000+0  00000+0 0  9994", "line2": "2 41550  55.1546 227.0538 0001419 244.2228 115.8568  1.70473512 59344"}}, "geometry": {"type": "Point", "coordinates": [-148.69546173975564, -21.201254217466822]}}, {"type": "Feature", "properties": {"norad_id": 41859, "name": "GSAT0207 (GALILEO 15)", "group": "galileo", "lat": 13.842555689768608, "lon": -83.41645047987673, "alt_km": 23226.696165074987, "timestamp": "2025-12-07T18:50:16.978835+00:00", "meta": {"OBJECT_NAME": "GSAT0207 (GALILEO 15)", "OBJECT_ID": "2016-069A", "EPOCH": "2025-12-06T22:22:57.829728", "MEAN_MOTION": 1.70474256, "ECCENTRICITY": 0.00021753, "INCLINATION": 55.3787, "RA_OF_ASC_NODE": 106.4111, "ARG_OF_PERICENTER": 324.2379, "MEAN_ANOMALY": 35.7022, "EPHEMERIS_TYPE": 0, "CLASSIFICATION_TYPE": "U", "NORAD_CAT_ID": 41859, "ELEMENT_SET_NO": 999, "REV_AT_EPOCH": 5612, "BSTAR": 0, "MEAN_MOTION_DOT": 7e-08, "MEAN_MOTION_DDOT": 0}, "tle": {"line1": "1 41859U 16069A   25340.93261377  .00000007  00000+0  00000+0 0  9996", "line2": "2 41859  55.3787 106.4111 0002175 324.2379  35.7022  1.70474256 56122"}}, "geometry": {"type": "Point", "coordinates": [-83.41645047987673, 13.842555689768608]}}, {"type": "Feature", "properties": {"norad_id": 41860, "name": "GSAT0212 (GALILEO 16)", "group": "galileo", "lat": -51.87457988859466, "lon": -12.052063793689342, "alt_km": 23232.81585305965, "timestamp": "2025-12-07T18:50:16.978846+00:00", "meta": {"OBJECT_NAME": "GSAT0212 (GALILEO 16)", "OBJECT_ID": "2016-069B", "EPOCH": "2025-12-06T04:47:33.838080", "MEAN_MOTION": 1.70474471, "ECCENTRICITY": 0.00022225, "INCLINATION": 55.376, "RA_OF_ASC_NODE": 106.4267, "ARG_OF_PERICENTER": 32.4045, "MEAN_ANOMALY": 327.5613, "EPHEMERIS_TYPE": 0, "CLASSIFICATION_TYPE": "U", "NORAD_CAT_ID": 41860, "ELEMENT_SET_NO": 999, "REV_AT_EPOCH": 5636, "BSTAR": 0, "MEAN_MOTION_DOT": 6e-08, "MEAN_MOTION_DDOT": 0}, "tle": {"line1": "1 41860U 16069B   25340.19969720  .00000006  00000+0  00000+0 0  9992", "line2": "2 41860  55.3760 106.4267 0002222  32.4045 327.5613  1.70474471 56361"}}, "geometry": {"type": "Point", "coordinates": [-12.052063793689342, -51.87457988859466]}}, {"type": "Feature", "properties": {"norad_id": 41861, "name": "GSAT0213 (GALILEO 17)", "group": "galileo", "lat": 22.17694826250857, "lon": 122.71713308958186, "alt_km": 23220.91707117692, "timestamp": "2025-12-07T18:50:16.978857+00:00", "meta": {"OBJECT_NAME": "GSAT0213 (GALILEO 17)", "OBJECT_ID": "2016-069C", "EPOCH": "2025-12-04T19:22:49.962144", "MEAN_MOTION": 1.70474712, "ECCENTRICITY": 0.00021375, "INCLINATION": 55.3775, "RA_OF_ASC_NODE": 106.4729, "ARG_OF_PERICENTER": 283.7545, "MEAN_ANOMALY": 76.173, "EPHEMERIS_TYPE": 0, "CLASSIFICATION_TYPE": "U", "NORAD_CAT_ID": 41861, "ELEMENT_SET_NO": 999, "REV_AT_EPOCH": 5620, "BSTAR": 0, "MEAN_MOTION_DOT": 1e-07, "MEAN_MOTION_DDOT": 0}, "tle": {"line1": "1 41861U 16069C   25338.80752271  .00000010  00000+0  00000+0 0  9994", "line2": "2 41861  55.3775 106.4729 0002137 283.7545  76.1730  1.70474712 56200"}}, "geometry": {"type": "Point", "coordinates": [122.71713308958186, 22.17694826250857]}}, {"type": "Feature", "properties": {"norad_id": 41862, "name": "GSAT0214 (GALILEO 18)", "group": "galileo", "lat": -46.777719704652064, "lon": 59.112716661130634, "alt_km": 23223.985859774428, "timestamp": "2025-12-07T18:50:16.978868+00:00", "meta": {"OBJECT_NAME": "GSAT0214 (GALILEO 18)", "OBJECT_ID": "2016-069D", "EPOCH": "2025-12-05T12:57:44.455104", "MEAN_MOTION": 1.70474584, "ECCENTRICITY": 0.00011763, "INCLINATION": 55.3762, "RA_OF_ASC_NODE": 106.4455, "ARG_OF_PERICENTER": 291.0864, "MEAN_ANOMALY": 68.8522, "EPHEMERIS_TYPE": 0, "CLASSIFICATION_TYPE": "U", "NORAD_CAT_ID": 41862, "ELEMENT_SET_NO": 999, "REV_AT_EPOCH": 5634, "BSTAR": 0, "MEAN_MOTION_DOT": 8e-08, "MEAN_MOTION_DDOT": 0}, "tle": {"line1": "1 41862U 16069D   25339.54009786  .00000008  00000+0  00000+0 0  9990", "line2": "2 41862  55.3762 106.4455 0001176 291.0864  68.8522  1.70474584 56340"}}, "geometry": {"type": "Point", "coordinates": [59.112716661130634, -46.777719704652064]}}, {"type": "Feature", "properties": {"norad_id": 43055, "name": "GSAT0215 (GALILEO 19)", "group": "galileo", "lat": -2.5034342117948465, "lon": -134.96093734515898, "alt_km": 23218.467551473037, "timestamp": "2025-12-07T18:50:16.978879+00:00", "meta": {"OBJECT_NAME": "GSAT0215 (GALILEO 19)", "OBJECT_ID": "2017-079A", "EPOCH": "2025-12-06T00:43:24.455424", "MEAN_MOTION": 1.70473755, "ECCENTRICITY": 0.00048437, "INCLINATION": 55.1369, "RA_OF_ASC_NODE": 226.8228, "ARG_OF_PERICENTER": 284.5496, "MEAN_ANOMALY": 75.4946, "EPHEMERIS_TYPE": 0, "CLASSIFICATION_TYPE": "U", "NORAD_CAT_ID": 43055, "ELEMENT_SET_NO": 999, "REV_AT_EPOCH": 4969, "BSTAR": 0, "MEAN_MOTION_DOT": 3.4e-07, "MEAN_MOTION_DDOT": 0}, "tle": {"line1": "1 43055U 17079A   25340.03014416  .00000034  00000+0  00000+0 0  9999", "line2": "2 43055  55.1369 226.8228 0004843 284.5496  75.4946  1.70473755 49697"}}, "geometry": {"type": "Point", "coordinates": [-134.96093734515898, -2.5034342117948465]}}, {"type": "Feature", "properties": {"norad_id": 43056, "name": "GSAT0216 (GALILEO 20)", "group": "galileo", "lat": 1.5633435999313, "lon": 45.694449054285776, "alt_km": 23227.971200247597, "timestamp": "2025-12-07T18:50:16.978890+00:00", "meta": {"OBJECT_NAME": "GSAT0216 (GALILEO 20)", "OBJECT_ID": "2017-079B", "EPOCH": "2025-12-06T21:47:45.694464", "MEAN_MOTION": 1.70473871, "ECCENTRICITY": 0.00025337, "INCLINATION": 55.1324, "RA_OF_ASC_NODE": 226.7984, "ARG_OF_PERICENTER": 317.6549, "MEAN_ANOMALY": 42.4219, "EPHEMERIS_TYPE": 0, "CLASSIFICATION_TYPE": "U", "NORAD_CAT_ID": 43056, "ELEMENT_SET_NO": 999, "REV_AT_EPOCH": 4972, "BSTAR": 0, "MEAN_MOTION_DOT": 2.8e-07, "MEAN_MOTION_DDOT": 0}, "tle": {"line1": "1 43056U 17079B   25340.90816776  .00000028  00000+0  00000+0 0  9998", "line2": "2 43056  55.1324 226.7984 0002533 317.6549  42.4219  1.70473871 49728"}}, "geometry": {"type": "Point", "coordinates": [45.694449054285776, 1.5633435999313]}}, {"type": "Feature", "properties": {"norad_id": 43057, "name": "GSAT0217 (GALILEO 21)", "group": "galileo", "lat": 33.77877549791661, "lon": -105.44555561015812, "alt_km": 23214.071336054803, "timestamp": "2025-12-07T18:50:16.978901+00:00", "meta": {"OBJECT_NAME": "GSAT0217 (GALILEO 21)", "OBJECT_ID": "2017-079C", "EPOCH": "2025-12-05T22:56:13.502976", "MEAN_MOTION": 1.70473847, "ECCENTRICITY": 0.00027948, "INCLINATION": 55.1308, "RA_OF_ASC_NODE": 226.8227, "ARG_OF_PERICENTER": 341.4584, "MEAN_ANOMALY": 18.6294, "EPHEMERIS_TYPE": 0, "CLASSIFICATION_TYPE": "U", "NORAD_CAT_ID": 43057, "ELEMENT_SET_NO": 999, "REV_AT_EPOCH": 4969, "BSTAR": 0, "MEAN_MOTION_DOT": 3.5e-07, "MEAN_MOTION_DDOT": 0}, "tle": {"line1": "1 43057U 17079C   25339.95571184  .00000035  00000+0  00000+0 0  9991", "line2": "2 43057  55.1308 226.8227 0002794 341.4584  18.6294  1.70473847 49692"}}, "geometry": {"type": "Point", "coordinates": [-105.44555561015812, 33.77877549791661]}}]}